ONEWEB-0241             
1 48773U 21045G   24189.49440455  .00000146  00000+0  35448-3 0  9997
2 48773  87.9028  40.4617 0001730  70.3600 289.7717 13.15547278152152
ONEWEB-0243             
1 48774U 21045H   24189.60216016 -.00000342  00000+0 -94356-3 0  9998
2 48774  87.9030  40.3991 0002215  70.5957 289.5412 13.15549297151068
ONEWEB-0222             
1 48775U 21045J   24189.66157900  .00000006  00000+0 -16911-4 0  9999
2 48775  87.9019  40.3891 0001795  74.3290 285.8039 13.15548513152233
ONEWEB-0244             
1 48776U 21045K   24189.61166145 -.00000072  00000+0 -22537-3 0  9990
2 48776  87.9015  40.3809 0002016  82.6735 277.4624 13.15548278152798
ONEWEB-0247             
1 48777U 21045L   24189.53242772 -.00000109  00000+0 -32309-3 0  9992
2 48777  87.9025  40.4393 0002634  65.4544 294.6861 13.15546570152238
ONEWEB-0245             
1 48778U 21045M   24189.60373121 -.00000029  00000+0 -11214-3 0  9997
2 48778  87.9018  40.4135 0001663  77.4241 282.7075 13.15546896151081
ONEWEB-0229             
1 48779U 21045N   24189.59898969  .00000038  00000+0  65744-4 0  9994
2 48779  87.9020  40.4085 0001959  81.6635 278.4718 13.15548202151114
ONEWEB-0228             
1 48780U 21045P   24190.15348022 -.00000119  00000+0 -35167-3 0  9997
2 48780  87.9017  40.2759 0001878  81.2650 278.8693 13.15070127152237
ONEWEB-0232             
1 48781U 21045Q   24189.53085787 -.00000044  00000+0 -15003-3 0  9998
2 48781  87.9012  40.4174 0001912  80.9968 279.1379 13.15547380151349
ONEWEB-0231             
1 48782U 21045R   24189.66077901  .00000188  00000+0  46480-3 0  9992
2 48782  87.9029  40.4245 0001975  76.2682 283.8668 13.15547414152192
ONEWEB-0234             
1 48783U 21045S   24189.60452074 -.00000042  00000+0 -14532-3 0  9999
2 48783  87.9020  40.3930 0000737 124.7050 235.4150 13.15546640151184
ONEWEB-0238             
1 48784U 21045T   24189.48250777 -.00002727  00000+0 -72782-2 0  9994
2 48784  87.9018  40.4353 0001615  86.4404 273.6911 13.15559862152196
ONEWEB-0240             
1 48785U 21045U   24189.64414134 -.00000044  00000+0 -15141-3 0  9999
2 48785  87.9017  40.3704 0001750  70.8660 289.2660 13.15548127152237
ONEWEB-0246             
1 48786U 21045V   24189.48647707 -.00000153  00000+0 -44093-3 0  9995
2 48786  87.9019  40.4065 0001982  82.1559 277.9796 13.15548278150960
ONEWEB-0210             
1 48787U 21045W   24189.53718412 -.00000307  00000+0 -84987-3 0  9991
2 48787  87.9017  40.4011 0002587  72.3404 287.8009 13.15547556151014
ONEWEB-0214             
1 48788U 21045X   24189.62274850 -.00000292  00000+0 -81066-3 0  9993
2 48788  87.9018  40.3729 0002441  80.3741 279.7665 13.15547988152112
ONEWEB-0221             
1 48789U 21045Y   24189.32486785 -.00000015  00000+0 -73375-4 0  9991
2 48789  87.9020  40.4507 0001840  76.0113 284.1222 13.15548492151049
ONEWEB-0213             
1 48790U 21045Z   24189.61799017 -.00000244  00000+0 -68319-3 0  9995
2 48790  87.9018  40.4056 0001978  73.1038 287.0309 13.15548388152271
ONEWEB-0212             
1 48791U 21045AA  24189.59501815  .00000065  00000+0  13768-3 0  9997
2 48791  87.9023  40.3934 0001729  84.6199 275.5129 13.15547148151130
ONEWEB-0227             
1 48792U 21045AB  24189.59422708  .00000105  00000+0  24542-3 0  9998
2 48792  87.9022  40.4089 0001814  78.6480 281.4854 13.15546704151085
ONEWEB-0226             
1 48793U 21045AC  24189.58789093  .00000138  00000+0  33165-3 0  9998
2 48793  87.9021  40.4167 0002241  74.1413 285.9964 13.15547468152174
ONEWEB-0224             
1 48794U 21045AD  24189.32327119 -.00000263  00000+0 -73364-3 0  9994
2 48794  87.9024  40.4912 0001176  46.8989 313.2240 13.15548359150941
ONEWEB-0233             
1 48795U 21045AE  24189.63043998  .00000034  00000+0  55388-4 0  9990
2 48795  87.9022  40.4436 0001988  81.7745 278.3610 13.15067114152118
ONEWEB-0190             
1 48796U 21045AF  24190.15198617 -.00000054  00000+0 -17857-3 0  9991
2 48796  87.9023  40.3003 0002370  60.6230 299.5137 13.15548008152261
ONEWEB-0236             
1 48797U 21045AG  24189.48489913  .00000096  00000+0  22030-3 0  9991
2 48797  87.9027  40.4278 0001759  80.1274 280.0055 13.15547287150941
ONEWEB-0248             
1 48798U 21045AH  24189.49756875  .00000188  00000+0  46463-3 0  9995
2 48798  87.9019  40.4144 0001721  58.6902 301.4397 13.15546857152224
ONEWEB-0225             
1 48799U 21045AJ  24189.59581089  .00000067  00000+0  14412-3 0  9995
2 48799  87.9025  40.4077 0001974  70.1518 289.9825 13.15546874151122
ONEWEB-0215             
1 48800U 21045AK  24189.48965083  .00000130  00000+0  31012-3 0  9992
2 48800  87.9017  40.4017 0002005  56.5503 303.5819 13.15547437152109
ONEWEB-0216             
1 48801U 21045AL  24189.65126690 -.00000028  00000+0 -10818-3 0  9994
2 48801  87.9019  40.4108 0002112  84.0000 276.1371 13.15547929152137
ONEWEB-0239             
1 48802U 21045AM  24189.57996696  .00000230  00000+0  57824-3 0  9998
2 48802  87.9029  40.4026 0001801  52.9852 307.1443 13.15547660151047
ONEWEB-0249             
1 48967U 21060A   24189.92446716 -.00000039  00000+0 -13565-3 0  9992
2 48967  87.9102   9.9757 0001828  90.5553 269.5787 13.16592915147576
