OBJECT_NAME,OBJECT_ID,EPOCH,MEAN_MOTION,ECCENTRICITY,INCLINATION,RA_OF_ASC_NODE,ARG_OF_PERICENTER,MEAN_ANOMALY,EPHEMERIS_TYPE,CLASSIFICATION_TYPE,NORAD_CAT_ID,ELEMENT_SET_NO,REV_AT_EPOCH,BSTAR,MEAN_MOTION_DOT,MEAN_MOTION_DDOT
ONEWEB-0241,2021-045G,2024-07-07T11:51:56.553120,13.15547278,.000173,87.9028,40.4617,70.3600,289.7717,0,U,48773,999,15215,.35448E-3,.146E-5,0
ONEWEB-0243,2021-045H,2024-07-07T14:27:06.637824,13.15549297,.0002215,87.9030,40.3991,70.5957,289.5412,0,U,48774,999,15106,-.94356E-3,-.342E-5,0
ONEWEB-0222,2021-045J,2024-07-07T15:52:40.425600,13.15548513,.0001795,87.9019,40.3891,74.3290,285.8039,0,U,48775,999,15223,-.16911E-4,.6E-7,0
ONEWEB-0244,2021-045K,2024-07-07T14:40:47.549280,13.15548278,.0002016,87.9015,40.3809,82.6735,277.4624,0,U,48776,999,15279,-.22537E-3,-.72E-6,0
ONEWEB-0247,2021-045L,2024-07-07T12:46:41.755008,13.15546570,.0002634,87.9025,40.4393,65.4544,294.6861,0,U,48777,999,15223,-.32309E-3,-.109E-5,0
ONEWEB-0245,2021-045M,2024-07-07T14:29:22.376544,13.15546896,.0001663,87.9018,40.4135,77.4241,282.7075,0,U,48778,999,15108,-.11214E-3,-.29E-6,0
ONEWEB-0229,2021-045N,2024-07-07T14:22:32.709216,13.15548202,.0001959,87.9020,40.4085,81.6635,278.4718,0,U,48779,999,15111,.65744E-4,.38E-6,0
ONEWEB-0228,2021-045P,2024-07-08T03:41:00.691008,13.15070127,.0001878,87.9017,40.2759,81.2650,278.8693,0,U,48780,999,15223,-.35167E-3,-.119E-5,0
ONEWEB-0232,2021-045Q,2024-07-07T12:44:26.119968,13.15547380,.0001912,87.9012,40.4174,80.9968,279.1379,0,U,48781,999,15134,-.15003E-3,-.44E-6,0
ONEWEB-0231,2021-045R,2024-07-07T15:51:31.306464,13.15547414,.0001975,87.9029,40.4245,76.2682,283.8668,0,U,48782,999,15219,.4648E-3,.188E-5,0
ONEWEB-0234,2021-045S,2024-07-07T14:30:30.591936,13.15546640,.0000737,87.9020,40.3930,124.7050,235.4150,0,U,48783,999,15118,-.14532E-3,-.42E-6,0
ONEWEB-0238,2021-045T,2024-07-07T11:34:48.671328,13.15559862,.0001615,87.9018,40.4353,86.4404,273.6911,0,U,48784,999,15219,-.72782E-2,-.2727E-4,0
ONEWEB-0240,2021-045U,2024-07-07T15:27:33.811776,13.15548127,.000175,87.9017,40.3704,70.8660,289.2660,0,U,48785,999,15223,-.15141E-3,-.44E-6,0
ONEWEB-0246,2021-045V,2024-07-07T11:40:31.618848,13.15548278,.0001982,87.9019,40.4065,82.1559,277.9796,0,U,48786,999,15096,-.44093E-3,-.153E-5,0
ONEWEB-0210,2021-045W,2024-07-07T12:53:32.707968,13.15547556,.0002587,87.9017,40.4011,72.3404,287.8009,0,U,48787,999,15101,-.84987E-3,-.307E-5,0
ONEWEB-0214,2021-045X,2024-07-07T14:56:45.470400,13.15547988,.0002441,87.9018,40.3729,80.3741,279.7665,0,U,48788,999,15211,-.81066E-3,-.292E-5,0
ONEWEB-0221,2021-045Y,2024-07-07T07:47:48.582240,13.15548492,.000184,87.9020,40.4507,76.0113,284.1222,0,U,48789,999,15104,-.73375E-4,-.15E-6,0
ONEWEB-0213,2021-045Z,2024-07-07T14:49:54.350688,13.15548388,.0001978,87.9018,40.4056,73.1038,287.0309,0,U,48790,999,15227,-.68319E-3,-.244E-5,0
ONEWEB-0212,2021-045AA,2024-07-07T14:16:49.568160,13.15547148,.0001729,87.9023,40.3934,84.6199,275.5129,0,U,48791,999,15113,.13768E-3,.65E-6,0
ONEWEB-0227,2021-045AB,2024-07-07T14:15:41.219712,13.15546704,.0001814,87.9022,40.4089,78.6480,281.4854,0,U,48792,999,15108,.24542E-3,.105E-5,0
ONEWEB-0226,2021-045AC,2024-07-07T14:06:33.776352,13.15547468,.0002241,87.9021,40.4167,74.1413,285.9964,0,U,48793,999,15217,.33165E-3,.138E-5,0
ONEWEB-0224,2021-045AD,2024-07-07T07:45:30.630816,13.15548359,.0001176,87.9024,40.4912,46.8989,313.2240,0,U,48794,999,15094,-.73364E-3,-.263E-5,0
ONEWEB-0233,2021-045AE,2024-07-07T15:07:50.014272,13.15067114,.0001988,87.9022,40.4436,81.7745,278.3610,0,U,48795,999,15211,.55388E-4,.34E-6,0
ONEWEB-0190,2021-045AF,2024-07-08T03:38:51.605088,13.15548008,.000237,87.9023,40.3003,60.6230,299.5137,0,U,48796,999,15226,-.17857E-3,-.54E-6,0
ONEWEB-0236,2021-045AG,2024-07-07T11:38:15.284832,13.15547287,.0001759,87.9027,40.4278,80.1274,280.0055,0,U,48797,999,15094,.2203E-3,.96E-6,0
ONEWEB-0248,2021-045AH,2024-07-07T11:56:29.940000,13.15546857,.0001721,87.9019,40.4144,58.6902,301.4397,0,U,48798,999,15222,.46463E-3,.188E-5,0
ONEWEB-0225,2021-045AJ,2024-07-07T14:17:58.060896,13.15546874,.0001974,87.9025,40.4077,70.1518,289.9825,0,U,48799,999,15112,.14412E-3,.67E-6,0
ONEWEB-0215,2021-045AK,2024-07-07T11:45:05.831712,13.15547437,.0002005,87.9017,40.4017,56.5503,303.5819,0,U,48800,999,15210,.31012E-3,.13E-5,0
ONEWEB-0216,2021-045AL,2024-07-07T15:37:49.460160,13.15547929,.0002112,87.9019,40.4108,84.0000,276.1371,0,U,48801,999,15213,-.10818E-3,-.28E-6,0
ONEWEB-0239,2021-045AM,2024-07-07T13:55:09.145344,13.15547660,.0001801,87.9029,40.4026,52.9852,307.1443,0,U,48802,999,15104,.57824E-3,.23E-5,0
ONEWEB-0249,2021-060A,2024-07-07T22:11:13.962624,13.16592915,.0001828,87.9102,9.9757,90.5553,269.5787,0,U,48967,999,14757,-.13565E-3,-.39E-6,0
